{"type": "FeatureCollection", "features": [ {"type": "Feature", "properties": {"norad_id": 66925, "name": "STARLINK-35945", "group": "last-30-days", "lat": 11.2157966659736, "lon": 52.02784357838434, "alt_km": 290.1002747517323, "timestamp": "2025-12-14T03:55:51.550634+00:00", "meta": {"OBJECT_NAME": "STARLINK-35945", "OBJECT_ID": "2025-286A", "EPOCH": "2025-12-13T06:00:02.000160", "MEAN_MOTION": 15.96137073, "ECCENTRICITY": 8.742e-05, "INCLINATION": 53.1575, "RA_OF_ASC_NODE": 48.155, "ARG_OF_PERICENTER": 87.0373, "MEAN_ANOMALY": 76.8846, "EPHEMERIS_TYPE": 0, "CLASSIFICATION_TYPE": "U", "NORAD_CAT_ID": 66925, "ELEMENT_SET_NO": 999, "REV_AT_EPOCH": 207, "BSTAR": -0.0028047629, "MEAN_MOTION_DOT": -0.0118656, "MEAN_MOTION_DDOT": 0.00043493327}, "tle": {"line1": "1 66925U 25286A   25347.25002315 -.01186560  43493-3 -28048-2 0  9999", "line2": "2 66925  53.1575  48.1550 0000874  87.0373  76.8846 15.96137073  2076"}}, "geometry": {"type": "Point", "coordinates": [52.02784357838434, 11.2157966659736]}}, {"type": "Feature", "properties": {"norad_id": 66926, "name": "STARLINK-35942", "group": "last-30-days", "lat": 13.840837914043957, "lon": 54.11597007963426, "alt_km": 289.19844933347395, "timestamp": "2025-12-14T03:55:51.550646+00:00", "meta": {"OBJECT_NAME": "STARLINK-35942", "OBJECT_ID": "2025-286B", "EPOCH": "2025-12-13T06:00:02.000160", "MEAN_MOTION": 15.96314786, "ECCENTRICITY": 8.999e-05, "INCLINATION": 53.1575, "RA_OF_ASC_NODE": 48.1489, "ARG_OF_PERICENTER": 81.5893, "MEAN_ANOMALY": 85.1202, "EPHEMERIS_TYPE": 0, "CLASSIFICATION_TYPE": "U", "NORAD_CAT_ID": 66926, "ELEMENT_SET_NO": 999, "REV_AT_EPOCH": 207, "BSTAR": -0.0028175724, "MEAN_MOTION_DOT": -0.01203402, "MEAN_MOTION_DDOT": 0.00044703166}, "tle": {"line1": "1 66926U 25286B   25347.25002315 -.01203402  44703-3 -28176-2 0  9992", "line2": "2 66926  53.1575  48.1489 0000899  81.5893  85.1202 15.96314786  2078"}}, "geometry": {"type": "Point", "coordinates": [54.11597007963426, 13.840837914043957]}}, {"type": "Feature", "properties": {"norad_id": 66927, "name": "STARLINK-35943", "group": "last-30-days", "lat": 14.990352457927344, "lon": 55.04961905102729, "alt_km": 288.78741880362304, "timestamp": "2025-12-14T03:55:51.550656+00:00", "meta": {"OBJECT_NAME": "STARLINK-35943", "OBJECT_ID": "2025-286C", "EPOCH": "2025-12-13T06:00:02.000160", "MEAN_MOTION": 15.96392365, "ECCENTRICITY": 9.707e-05, "INCLINATION": 53.1576, "RA_OF_ASC_NODE": 48.1466, "ARG_OF_PERICENTER": 80.7514, "MEAN_ANOMALY": 87.1815, "EPHEMERIS_TYPE": 0, "CLASSIFICATION_TYPE": "U", "NORAD_CAT_ID": 66927, "ELEMENT_SET_NO": 999, "REV_AT_EPOCH": 207, "BSTAR": -0.0028183398, "MEAN_MOTION_DOT": -0.0120879, "MEAN_MOTION_DDOT": 0.00045103585}, "tle": {"line1": "1 66927U 25286C   25347.25002315 -.01208790  45104-3 -28183-2 0  9992", "line2": "2 66927  53.1576  48.1466 0000970  80.7514  87.1815 15.96392365  2077"}}, "geometry": {"type": "Point", "coordinates": [55.04961905102729, 14.990352457927344]}}, {"type": "Feature", "properties": {"norad_id": 66928, "name": "STARLINK-35944", "group": "last-30-days", "lat": 12.663336444332213, "lon": 53.17235333485721, "alt_km": 289.5691525909551, "timestamp": "2025-12-14T03:55:51.550666+00:00", "meta": {"OBJECT_NAME": "STARLINK-35944", "OBJECT_ID": "2025-286D", "EPOCH": "2025-12-13T06:00:02.000160", "MEAN_MOTION": 15.96241473, "ECCENTRICITY": 8.912e-05, "INCLINATION": 53.1575, "RA_OF_ASC_NODE": 48.1516, "ARG_OF_PERICENTER": 79.5303, "MEAN_ANOMALY": 85.9197, "EPHEMERIS_TYPE": 0, "CLASSIFICATION_TYPE": "U", "NORAD_CAT_ID": 66928, "ELEMENT_SET_NO": 999, "REV_AT_EPOCH": 207, "BSTAR": -0.0028232946, "MEAN_MOTION_DOT": -0.01201055, "MEAN_MOTION_DDOT": 0.00044511324}, "tle": {"line1": "1 66928U 25286D   25347.25002315 -.01201055  44511-3 -28233-2 0  9997", "line2": "2 66928  53.1575  48.1516 0000891  79.5303  85.9197 15.96241473  2079"}}, "geometry": {"type": "Point", "coordinates": [53.17235333485721, 12.663336444332213]}}, {"type": "Feature", "properties": {"norad_id": 66929, "name": "STARLINK-36169", "group": "last-30-days", "lat": 16.247663303915026, "lon": 56.08573522391935, "alt_km": 288.28479542495006, "timestamp": "2025-12-14T03:55:51.550678+00:00", "meta": {"OBJECT_NAME": "STARLINK-36169", "OBJECT_ID": "2025-286E", "EPOCH": "2025-12-13T06:00:02.000160", "MEAN_MOTION": 15.96472414, "ECCENTRICITY": 0.00010428, "INCLINATION": 53.1574, "RA_OF_ASC_NODE": 48.1436, "ARG_OF_PERICENTER": 71.3779, "MEAN_ANOMALY": 97.8988, "EPHEMERIS_TYPE": 0, "CLASSIFICATION_TYPE": "U", "NORAD_CAT_ID": 66929, "ELEMENT_SET_NO": 999, "REV_AT_EPOCH": 207, "BSTAR": -0.0028069749, "MEAN_MOTION_DOT": -0.01209204, "MEAN_MOTION_DDOT": 0.00045168937}, "tle": {"line1": "1 66929U 25286E   25347.25002315 -.01209204  45169-3 -28070-2 0  9991", "line2": "2 66929  53.1574  48.1436 0001042  71.3779  97.8988 15.96472414  2077"}}, "geometry": {"type": "Point", "coordinates": [56.08573522391935, 16.247663303915026]}}, {"type": "Feature", "properties": {"norad_id": 66930, "name": "STARLINK-36206", "group": "last-30-days", "lat": 17.361329801127113, "lon": 57.01830823099823, "alt_km": 287.93189267015805, "timestamp": "2025-12-14T03:55:51.550688+00:00", "meta": {"OBJECT_NAME": "STARLINK-36206", "OBJECT_ID": "2025-286F", "EPOCH": "2025-12-13T06:00:02.000160", "MEAN_MOTION": 15.96546241, "ECCENTRICITY": 9.564e-05, "INCLINATION": 53.1574, "RA_OF_ASC_NODE": 48.1411, "ARG_OF_PERICENTER": 75.6608, "MEAN_ANOMALY": 94.8085, "EPHEMERIS_TYPE": 0, "CLASSIFICATION_TYPE": "U", "NORAD_CAT_ID": 66930, "ELEMENT_SET_NO": 999, "REV_AT_EPOCH": 207, "BSTAR": -0.0028031277, "MEAN_MOTION_DOT": -0.01212389, "MEAN_MOTION_DDOT": 0.00045419817}, "tle": {"line1": "1 66930U 25286F   25347.25002315 -.01212389  45420-3 -28031-2 0  9998", "line2": "2 66930  53.1574  48.1411 0000956  75.6608  94.8085 15.96546241  2078"}}, "geometry": {"type": "Point", "coordinates": [57.01830823099823, 17.361329801127113]}}, {"type": "Feature", "properties": {"norad_id": 66931, "name": "STARLINK-36130", "group": "last-30-days", "lat": 18.641726754333433, "lon": 58.1094606585994, "alt_km": 287.50155899931633, "timestamp": "2025-12-14T03:55:51.550717+00:00", "meta": {"OBJECT_NAME": "STARLINK-36130", "OBJECT_ID": "2025-286G", "EPOCH": "2025-12-13T06:00:02.000160", "MEAN_MOTION": 15.96632539, "ECCENTRICITY": 0.00010039, "INCLINATION": 53.1574, "RA_OF_ASC_NODE": 48.1383, "ARG_OF_PERICENTER": 73.7558, "MEAN_ANOMALY": 98.0956, "EPHEMERIS_TYPE": 0, "CLASSIFICATION_TYPE": "U", "NORAD_CAT_ID": 66931, "ELEMENT_SET_NO": 999, "REV_AT_EPOCH": 207, "BSTAR": -0.0028039741, "MEAN_MOTION_DOT": -0.01218441, "MEAN_MOTION_DDOT": 0.00045873727}, "tle": {"line1": "1 66931U 25286G   25347.25002315 -.01218441  45874-3 -28040-2 0  9997", "line2": "2 66931  53.1574  48.1383 0001003  73.7558  98.0956 15.96632539  2073"}}, "geometry": {"type": "Point", "coordinates": [58.1094606585994, 18.641726754333433]}}, {"type": "Feature", "properties": {"norad_id": 66932, "name": "STARLINK-36177", "group": "last-30-days", "lat": 19.88741397796943, "lon": 59.192219811948604, "alt_km": 287.071160296975, "timestamp": "2025-12-14T03:55:51.550729+00:00", "meta": {"OBJECT_NAME": "STARLINK-36177", "OBJECT_ID": "2025-286H", "EPOCH": "2025-12-13T06:00:02.000160", "MEAN_MOTION": 15.96717674, "ECCENTRICITY": 0.00010066, "INCLINATION": 53.1573, "RA_OF_ASC_NODE": 48.1354, "ARG_OF_PERICENTER": 74.9723, "MEAN_ANOMALY": 98.2206, "EPHEMERIS_TYPE": 0, "CLASSIFICATION_TYPE": "U", "NORAD_CAT_ID": 66932, "ELEMENT_SET_NO": 999, "REV_AT_EPOCH": 207, "BSTAR": -0.002799201, "MEAN_MOTION_DOT": -0.0122202, "MEAN_MOTION_DDOT": 0.00046159539}, "tle": {"line1": "1 66932U 25286H   25347.25002315 -.01222020  46160-3 -27992-2 0  9990", "line2": "2 66932  53.1573  48.1354 0001006  74.9723  98.2206 15.96717674  2075"}}, "geometry": {"type": "Point", "coordinates": [59.192219811948604, 19.88741397796943]}}, {"type": "Feature", "properties": {"norad_id": 66933, "name": "STARLINK-36157", "group": "last-30-days", "lat": 21.101782587094938, "lon": 60.270113923077034, "alt_km": 286.6989611074014, "timestamp": "2025-12-14T03:55:51.550739+00:00", "meta": {"OBJECT_NAME": "STARLINK-36157", "OBJECT_ID": "2025-286J", "EPOCH": "2025-12-13T06:00:02.000160", "MEAN_MOTION": 15.96801828, "ECCENTRICITY": 9.388e-05, "INCLINATION": 53.1574, "RA_OF_ASC_NODE": 48.1327, "ARG_OF_PERICENTER": 79.8577, "MEAN_ANOMALY": 94.6549, "EPHEMERIS_TYPE": 0, "CLASSIFICATION_TYPE": "U", "NORAD_CAT_ID": 66933, "ELEMENT_SET_NO": 999, "REV_AT_EPOCH": 207, "BSTAR": -0.0028009159, "MEAN_MOTION_DOT": -0.01228349, "MEAN_MOTION_DDOT": 0.00046635634}, "tle": {"line1": "1 66933U 25286J   25347.25002315 -.01228349  46636-3 -28009-2 0  9999", "line2": "2 66933  53.1574  48.1327 0000938  79.8577  94.6549 15.96801828  2076"}}, "geometry": {"type": "Point", "coordinates": [60.270113923077034, 21.101782587094938]}}, {"type": "Feature", "properties": {"norad_id": 66934, "name": "STARLINK-36153", "group": "last-30-days", "lat": 22.313958784309953, "lon": 61.37000961404326, "alt_km": 286.2308102463048, "timestamp": "2025-12-14T03:55:51.550751+00:00", "meta": {"OBJECT_NAME": "STARLINK-36153", "OBJECT_ID": "2025-286K", "EPOCH": "2025-12-13T06:00:02.000160", "MEAN_MOTION": 15.96883209, "ECCENTRICITY": 0.00010032, "INCLINATION": 53.1573, "RA_OF_ASC_NODE": 48.1297, "ARG_OF_PERICENTER": 72.4777, "MEAN_ANOMALY": 103.3715, "EPHEMERIS_TYPE": 0, "CLASSIFICATION_TYPE": "U", "NORAD_CAT_ID": 66934, "ELEMENT_SET_NO": 999, "REV_AT_EPOCH": 207, "BSTAR": -0.0028035484, "MEAN_MOTION_DOT": -0.01234947, "MEAN_MOTION_DDOT": 0.00047132035}, "tle": {"line1": "1 66934U 25286K   25347.25002315 -.01234947  47132-3 -28035-2 0  9992", "line2": "2 66934  53.1573  48.1297 0001003  72.4777 103.3715 15.96883209  2073"}}, "geometry": {"type": "Point", "coordinates": [61.37000961404326, 22.313958784309953]}}]}